ONEWEB-0368             
1 49294U 21090R   26176.69758595  .00000014  00000+0  18770-5 0  9998
2 49294  87.9187 272.7541 0001294  94.8033 265.3248 13.20770724232102
ONEWEB-0369             
1 49295U 21090S   26176.90090616 -.00000086  00000+0 -24625-3 0  9991
2 49295  87.9178 303.2380 0001821 100.5902 259.5435 13.19724810227560
ONEWEB-0370             
1 49296U 21090T   26176.80869692  .00000006  00000+0 -16361-4 0  9999
2 49296  87.9196 272.7221 0002249 102.5772 257.5613 13.20771430231009
ONEWEB-0371             
1 49297U 21090U   26176.90878426  .00000013  00000+0 -32962-6 0  9991
2 49297  87.9184 303.2295 0001927 102.2235 257.9113 13.19723958227601
ONEWEB-0372             
1 49298U 21090V   26177.17723623 -.00004141  00000+0 -10218-1 0  9992
2 49298  87.9198 272.6509 0001874  99.8649 260.2696 13.20793536231020
ONEWEB-0373             
1 49299U 21090W   26176.82384868  .00000052  00000+0  96404-4 0  9997
2 49299  87.9194 272.7211 0002099  98.4275 261.7097 13.20771497232167
ONEWEB-0374             
1 49300U 21090X   26176.87227127 -.00000242  00000+0 -68707-3 0  9996
2 49300  87.8969 287.9671 0001952  82.9037 277.2315 13.14503695228704
ONEWEB-0375             
1 49301U 21090Y   26177.19085079  .00000066  00000+0  13024-3 0  9995
2 49301  87.9196 272.6396 0002095  83.9338 276.2034 13.20771981231711
ONEWEB-0376             
1 49302U 21090Z   26176.90721705 -.00000024  00000+0 -91115-4 0  9991
2 49302  87.9183 303.2298 0001796 104.6513 255.4818 13.19725146227605
ONEWEB-0377             
1 49303U 21090AA  26177.17750881  .00000004  00000+0 -22742-4 0  9996
2 49303  87.9194 272.6443 0002136  94.9377 265.2000 13.20772208231708
ONEWEB-0378             
1 49304U 21090AB  26176.81893922 -.00000062  00000+0 -18393-3 0  9992
2 49304  87.9191 272.7205 0001988  96.0526 264.0834 13.20770238230922
ONEWEB-0379             
1 49305U 21090AC  26176.86751235 -.00000075  00000+0 -23779-3 0  9996
2 49305  87.8972 287.9777 0001836  97.6067 262.5271 13.14503085228708
ONEWEB-0380             
1 49306U 21090AD  26176.90406794 -.00000029  00000+0 -10457-3 0  9997
2 49306  87.9178 303.2347 0002083  95.5193 264.6177 13.19725059227579
ONEWEB-0381             
1 49307U 21090AE  26176.71946907 -.00000031  00000+0 -10879-3 0  9993
2 49307  87.9196 272.7402 0001999  91.9947 268.1415 13.20772724230957
ONEWEB-0382             
1 49308U 21090AF  26177.16054385 -.00000025  00000+0 -92541-4 0  9994
2 49308  87.9198 272.6466 0001865  91.6986 268.4361 13.20770619231002
ONEWEB-0383             
1 49309U 21090AG  26176.86117104 -.00000173  00000+0 -50033-3 0  9993
2 49309  87.8977 287.9710 0001835  97.5091 262.6247 13.14501266228735
ONEWEB-0384             
1 49310U 21090AH  26176.69437674  .00000002  00000+0 -26316-4 0  9991
2 49310  87.9198 272.7832 0001796  88.2059 271.9280 13.20812718230958
ONEWEB-0385             
1 49311U 21090AJ  26176.54774897  .00000030  00000+0  40762-4 0  9998
2 49311  87.9196 272.7739 0001926  94.2875 265.8478 13.20773377230904
ONEWEB-0386             
1 49312U 21090AK  26176.79186208  .00000014  00000+0  13988-5 0  9992
2 49312  87.9199 272.7165 0001841  93.5291 266.6053 13.20772200230958
ONEWEB-0387             
1 49313U 21090AL  26176.70094801  .00000036  00000+0  57580-4 0  9990
2 49313  87.9193 272.7560 0002236  92.4731 267.6658 13.20773196230944
ONEWEB-0388             
1 49314U 21090AM  26176.89932807 -.00000078  00000+0 -22736-3 0  9990
2 49314  87.9177 303.2335 0001893  95.4679 264.6670 13.19725010227564
ONEWEB-0389             
1 50469U 21132A   26177.08325050 -.00000010  00000+0 -58636-4 0  9993
2 50469  87.9130   4.0980 0002051  80.4190 279.7173 13.17649213219257
ONEWEB-0390             
1 50470U 21132B   26177.00900203 -.00000024  00000+0 -94687-4 0  9997
2 50470  87.9133   4.1138 0002083  93.3928 266.7442 13.17649376219249
ONEWEB-0391             
1 50471U 21132C   26177.08662610  .00000025  00000+0  30968-4 0  9994
2 50471  87.9133   4.1081 0002585  78.6765 281.4657 13.17649247219259
ONEWEB-0392             
1 50472U 21132D   26176.96513404  .00000053  00000+0  10406-3 0  9992
2 50472  87.9142   4.1011 0002121  80.7384 279.3987 13.17649514219271
ONEWEB-0393             
1 50473U 21132E   26176.94065058  .00000092  00000+0  20493-3 0  9998
2 50473  87.9132   4.1226 0001959  84.8784 275.2571 13.17650438219266
ONEWEB-0394             
1 50474U 21132F   26176.97565896  .00000026  00000+0  33574-4 0  9999
2 50474  87.9174 333.6933 0001757  90.2853 269.8480 13.18688991222754
ONEWEB-0395             
1 50475U 21132G   26177.09377250  .00000584  00000+0  16107-2 0  9999
2 50475  87.8879  19.2936 0002074  87.7755 272.3610 13.11416251216883
ONEWEB-0396             
1 50476U 21132H   26176.96892000 -.00000045  00000+0 -14683-3 0  9992
2 50476  87.9178 333.7076 0001840  88.7200 271.4143 13.18684994222798
ONEWEB-0397             
1 50477U 21132J   26176.98409506  .00000044  00000+0  79535-4 0  9995
2 50477  87.9176 333.7045 0001722  87.1970 272.9359 13.18686079222778
ONEWEB-0398             
1 50478U 21132K   26176.98524839 -.00000268  00000+0 -79264-3 0  9991
2 50478  87.8890  19.3068 0002061  93.0905 267.0458 13.11418386216768
