OBJECT_NAME,OBJECT_ID,EPOCH,MEAN_MOTION,ECCENTRICITY,INCLINATION,RA_OF_ASC_NODE,ARG_OF_PERICENTER,MEAN_ANOMALY,EPHEMERIS_TYPE,CLASSIFICATION_TYPE,NORAD_CAT_ID,ELEMENT_SET_NO,REV_AT_EPOCH,BSTAR,MEAN_MOTION_DOT,MEAN_MOTION_DDOT
ONEWEB-0368,2021-090R,2026-06-25T16:44:31.426080,13.20770724,.0001294,87.9187,272.7541,94.8033,265.3248,0,U,49294,999,23210,.1877E-5,.14E-6,0
ONEWEB-0369,2021-090S,2026-06-25T21:37:18.292224,13.19724810,.0001821,87.9178,303.2380,100.5902,259.5435,0,U,49295,999,22756,-.24625E-3,-.86E-6,0
ONEWEB-0370,2021-090T,2026-06-25T19:24:31.413888,13.20771430,.0002249,87.9196,272.7221,102.5772,257.5613,0,U,49296,999,23100,-.16361E-4,.6E-7,0
ONEWEB-0371,2021-090U,2026-06-25T21:48:38.960064,13.19723958,.0001927,87.9184,303.2295,102.2235,257.9113,0,U,49297,999,22760,-.32962E-6,.13E-6,0
ONEWEB-0372,2021-090V,2026-06-26T04:15:13.210272,13.20793536,.0001874,87.9198,272.6509,99.8649,260.2696,0,U,49298,999,23102,-.10218E-1,-.4141E-4,0
ONEWEB-0373,2021-090W,2026-06-25T19:46:20.525952,13.20771497,.0002099,87.9194,272.7211,98.4275,261.7097,0,U,49299,999,23216,.96404E-4,.52E-6,0
ONEWEB-0374,2021-090X,2026-06-25T20:56:04.237728,13.14503695,.0001952,87.8969,287.9671,82.9037,277.2315,0,U,49300,999,22870,-.68707E-3,-.242E-5,0
ONEWEB-0375,2021-090Y,2026-06-26T04:34:49.508256,13.20771981,.0002095,87.9196,272.6396,83.9338,276.2034,0,U,49301,999,23171,.13024E-3,.66E-6,0
ONEWEB-0376,2021-090Z,2026-06-25T21:46:23.553120,13.19725146,.0001796,87.9183,303.2298,104.6513,255.4818,0,U,49302,999,22760,-.91115E-4,-.24E-6,0
ONEWEB-0377,2021-090AA,2026-06-26T04:15:36.761184,13.20772208,.0002136,87.9194,272.6443,94.9377,265.2000,0,U,49303,999,23170,-.22742E-4,.4E-7,0
ONEWEB-0378,2021-090AB,2026-06-25T19:39:16.348608,13.20770238,.0001988,87.9191,272.7205,96.0526,264.0834,0,U,49304,999,23092,-.18393E-3,-.62E-6,0
ONEWEB-0379,2021-090AC,2026-06-25T20:49:13.067040,13.14503085,.0001836,87.8972,287.9777,97.6067,262.5271,0,U,49305,999,22870,-.23779E-3,-.75E-6,0
ONEWEB-0380,2021-090AD,2026-06-25T21:41:51.470016,13.19725059,.0002083,87.9178,303.2347,95.5193,264.6177,0,U,49306,999,22757,-.10457E-3,-.29E-6,0
ONEWEB-0381,2021-090AE,2026-06-25T17:16:02.127648,13.20772724,.0001999,87.9196,272.7402,91.9947,268.1415,0,U,49307,999,23095,-.10879E-3,-.31E-6,0
ONEWEB-0382,2021-090AF,2026-06-26T03:51:10.988640,13.20770619,.0001865,87.9198,272.6466,91.6986,268.4361,0,U,49308,999,23100,-.92541E-4,-.25E-6,0
ONEWEB-0383,2021-090AG,2026-06-25T20:40:05.177856,13.14501266,.0001835,87.8977,287.9710,97.5091,262.6247,0,U,49309,999,22873,-.50033E-3,-.173E-5,0
ONEWEB-0384,2021-090AH,2026-06-25T16:39:54.150336,13.20812718,.0001796,87.9198,272.7832,88.2059,271.9280,0,U,49310,999,23095,-.26316E-4,.2E-7,0
ONEWEB-0385,2021-090AJ,2026-06-25T13:08:45.511008,13.20773377,.0001926,87.9196,272.7739,94.2875,265.8478,0,U,49311,999,23090,.40762E-4,.3E-6,0
ONEWEB-0386,2021-090AK,2026-06-25T19:00:16.883712,13.20772200,.0001841,87.9199,272.7165,93.5291,266.6053,0,U,49312,999,23095,.13988E-5,.14E-6,0
ONEWEB-0387,2021-090AL,2026-06-25T16:49:21.908064,13.20773196,.0002236,87.9193,272.7560,92.4731,267.6658,0,U,49313,999,23094,.5758E-4,.36E-6,0
ONEWEB-0388,2021-090AM,2026-06-25T21:35:01.945248,13.19725010,.0001893,87.9177,303.2335,95.4679,264.6670,0,U,49314,999,22756,-.22736E-3,-.78E-6,0
ONEWEB-0389,2021-132A,2026-06-26T01:59:52.843200,13.17649213,.0002051,87.9130,4.0980,80.4190,279.7173,0,U,50469,999,21925,-.58636E-4,-.1E-6,0
ONEWEB-0390,2021-132B,2026-06-26T00:12:57.775392,13.17649376,.0002083,87.9133,4.1138,93.3928,266.7442,0,U,50470,999,21924,-.94687E-4,-.24E-6,0
ONEWEB-0391,2021-132C,2026-06-26T02:04:44.495040,13.17649247,.0002585,87.9133,4.1081,78.6765,281.4657,0,U,50471,999,21925,.30968E-4,.25E-6,0
ONEWEB-0392,2021-132D,2026-06-25T23:09:47.581056,13.17649514,.0002121,87.9142,4.1011,80.7384,279.3987,0,U,50472,999,21927,.10406E-3,.53E-6,0
ONEWEB-0393,2021-132E,2026-06-25T22:34:32.210112,13.17650438,.0001959,87.9132,4.1226,84.8784,275.2571,0,U,50473,999,21926,.20493E-3,.92E-6,0
ONEWEB-0394,2021-132F,2026-06-25T23:24:56.934144,13.18688991,.0001757,87.9174,333.6933,90.2853,269.8480,0,U,50474,999,22275,.33574E-4,.26E-6,0
ONEWEB-0395,2021-132G,2026-06-26T02:15:01.944000,13.11416251,.0002074,87.8879,19.2936,87.7755,272.3610,0,U,50475,999,21688,.16107E-2,.584E-5,0
ONEWEB-0396,2021-132H,2026-06-25T23:15:14.688000,13.18684994,.000184,87.9178,333.7076,88.7200,271.4143,0,U,50476,999,22279,-.14683E-3,-.45E-6,0
ONEWEB-0397,2021-132J,2026-06-25T23:37:05.813184,13.18686079,.0001722,87.9176,333.7045,87.1970,272.9359,0,U,50477,999,22277,.79535E-4,.44E-6,0
ONEWEB-0398,2021-132K,2026-06-25T23:38:45.460896,13.11418386,.0002061,87.8890,19.3068,93.0905,267.0458,0,U,50478,999,21676,-.79264E-3,-.268E-5,0
